#dP2020 11 17  0  0  0.00000000      96 __u+U ITR00 FIT  IAC
## 2132 172800.00000000   900.00000000 59170 0.0000000000000
+  121   C01C02C03C04C05C06C07C08C09C10C11C12C13C14C16C19C20
+        C21C22C23C24C25C26C27C28C29C30C32C33C34C35C36C37C39
+        C40C44C45C46C60E01E02E03E04E05E07E08E09E11E12E13E14
+        E15E18E19E21E24E25E26E27E30E31E33E36G01G02G03G04G05
+        G06G07G08G09G10G11G12G13G15G16G17G18G19G20G21G22G23
+        G24G25G26G27G28G29G30G31G32J01J02J03J07R01R02R03R04
+        R05R07R08R09R11R12R13R14R15R16R17R18R19R20R21R22R23
+        R24R25  0  0  0  0  0  0  0  0  0  0  0  0  0  0  0
++        13 13 13 14 13  8  8  9  8  8  8  8  8  8  8  8  8
++         8  8  8  8  8  8  8  8  8  8  8  8  8  8  8  8 11
++        12 11 10  9 14  5  4  4  4  5  5  4  5  4  5  4  5
++         4  4  5  5  5  5  5  5  4  5  7  4  4  4  4  4  4
++         3  4  3  3  4  4  4  4  4  3  4  3  4  4  4  4  3
++         4  4  3  3  4  3  3  4  4  9  9  9 14  6  6  6  6
++         6  6  6  5  6  6  6  6  6  6  6  5  6  6  6  6  5
++         6 12  0  0  0  0  0  0  0  0  0  0  0  0  0  0  0
%c M  cc GPS ccc cccc cccc cccc cccc ccccc ccccc ccccc ccccc
%c cc cc ccc ccc cccc cccc cccc cccc ccccc ccccc ccccc ccccc
%f  0.0000000  0.000000000  0.00000000000  0.000000000000000
%f  0.0000000  0.000000000  0.00000000000  0.000000000000000
%i    0    0    0    0      0      0      0      0         0
%i    0    0    0    0      0      0      0      0         0
/* INFORMATION & ANALYSIS CENTER (IAC)            RAPID DATA
/* S/V CLOCKS ARE ALIGNED TO GNSS TIME                      
/* G:C1WC2W R:C1PC2P E:C1XC5X C:C2IC6I J:C1CC2S             
/* PCV:IGS14_2131 OL/AL:FES2004  NONE     YN ORB:CoN CLK:CoN
*  2020 11 17 16 30  0.00000000
PC01 -34329.132611  24514.645532    281.551634   -718.206826
PC02   4365.858564  41909.120425   -875.311042    733.418245
PC03 -14764.216967  39455.785121   -283.015516    221.998302
PC04 -39618.793663  14460.158915    509.458627    -10.841370
PC05  21800.043551  36069.513099  -1205.653523   -354.773359
PC06  -7817.113980  27872.784210 -30090.355711    147.658124
PC07 -21540.722485  24645.467801  26570.380386    -47.938412
PC08 -19060.196019  37811.787394   1659.678890   -706.718407
PC09   5257.834870  36556.929707 -19719.640838    931.630715
PC10  -5177.196745  26874.472028  32234.265397   -140.232102
PC11 -15628.629650 -20704.342371  10278.738319   -758.176271
PC12  -5622.024853 -26262.057252  -7475.755201    615.031470
PC13  -9761.789642  39530.582269 -11448.127758    748.028393
PC14 -21329.759348 -11892.182322  13474.353678    265.532228
PC16  -5093.918035  29535.756615 -29497.056120   -612.127552
PC19  26692.239162   6467.321578  -4963.272130    621.688093
PC20  13942.983957  14882.385352 -19053.513680   -893.788988
PC21   7777.239900 -14761.111077  22378.353646   -725.725587
PC22  24326.278563  -5861.471559  12371.887464   -793.784276
PC23 -20951.412331  15084.278440 -10596.506077   -911.792786
PC24  -3142.030999 -19304.168986 -19895.383754   -722.266592
PC25 -17513.242833  -2006.625352 -21640.219693   -830.269768
PC26  11322.598504 -24448.822363  -7195.672293    908.233116
PC27  -1985.746046  23188.998393  15374.074023    434.405118
PC28 -14147.982988   7254.007521  22939.694926   -144.802585
PC29  18466.908372  12181.050021 -17014.850066    312.541990
PC30  11983.878965  25181.769209   -734.544811    405.141992
PC32  -7684.643265  14821.540007 -22355.237972   -887.207432
PC33 -26678.262772  -6402.629040   5063.699589   -840.191387
PC34 -12272.714308 -25038.525886   1324.656282   -806.730987
PC35  14066.601515  -7511.020173 -22900.845248   -555.399630
PC36  17301.600190   2742.347224  21750.334009   -833.932418
PC37 -12441.950433  24136.726078   6504.973514   -875.182589
PC39    329.401317  31887.241287 -27512.879553     25.264613
PC40 -13241.024891  21514.123438  33743.986642    101.964349
PC44   1447.080020 -23197.062506 -15467.266424   -111.539973
PC45  20857.405783 -15175.074452  10627.899644    284.999860
PC46   3706.029624  18813.669325  20299.895539    540.598260
PC60   7323.704622  41496.625343   1625.610660     -0.611148
PE01 -19471.292868  -6201.608213 -21409.619983   -984.713040
PE02  19534.144774   6142.575179  21374.423935    177.115064
PE03  24871.740054  16061.871621     82.242625   -366.083394
PE04 -24209.418769  -1340.811662 -16982.604528   -649.768732
PE05  10943.554921  21553.454019 -17091.574265   -328.638812
PE07   9248.161176 -14416.186079  24138.087701   -463.109491
PE08  24044.229750   1063.506535  17231.629918   6090.286424
PE09  -8936.136235  14448.564059 -24244.346269   5862.115933
PE11  -9364.849198  25083.883491  12612.450235   6809.108701
PE12 -16083.320390   6068.360302  24100.330690   5501.514247
PE13   9402.342764 -24910.647859 -12917.360020    406.617530
PE14  24872.453584  13518.887167 -12434.660150  -1228.778124
PE15  15966.071587  -6265.458842 -24113.402529    843.320730
PE18 -17228.806027 -19254.910602   1358.049660  -1342.374386
PE19 -23954.808997 -17265.247123   2085.080613    130.758593
PE21   -707.527322 -17560.514091 -23811.119635   -632.466384
PE24 -19486.359108  18829.776764  11938.805051   -588.208855
PE25    524.301149  17632.890229  23783.168209   -520.427748
PE26  -2954.476161 -28736.443961   6428.928807   2485.136081
PE27  18982.585927 -19019.912575 -12390.016864     90.796619
PE30  27448.633927  -8697.102083   6826.079545   3416.335391
PE31 -27400.229147   9318.509744  -6211.528172   -475.774367
PE33 -13142.722569 -16036.216026  21132.180934   -463.439141
PE36   2666.253362  28898.162105  -5838.666434    479.710204
PG01 -13925.740623  18868.982939  11904.825721    806.518240
PG02  14786.405605   2019.394230 -21322.464493   -543.687956
PG03 -20147.080652  13033.897519 -11362.363687     -6.370869
PG04 -10686.625609  10885.384897 -21738.031763   -156.208642
PG05  25459.397995  -1365.681815  -7930.178028    -26.122614
PG06   7684.053902  17511.465531 -18357.538454     -1.382433
PG07  -5196.010429  25597.311155   3348.588685   -416.208189
PG08 -17434.301914   1981.426424  20033.951636    -55.431089
PG09   1019.679449  19385.556694 -18182.245309   -290.700638
PG10  -8480.507165 -13203.744059  21554.462894   -506.891608
PG11 -13211.891179  11360.955833  19668.561257   -106.069283
PG12  22572.413109 -10367.166897  -9420.628243     39.072160
PG13  19623.380180   8206.974206  15844.190567     65.852469
PG15  17140.607523  -4703.473228  19487.164719   -189.370405
PG16 -25821.036327  -1043.943039  -7317.358391   -237.782517
PG17  14563.078139  21827.067112   4630.967507    355.155376
PG18   4690.183676 -25687.303000   4690.278142    322.498940
PG19  17841.529740  19522.388894  -3146.243721    -77.073334
PG20   4223.593779 -17250.551004  19601.446214    525.982861
PG21 -15989.957985  10669.254074  18942.619821     69.161556
PG22 -24093.730157  10561.857914  -2791.262970   -728.620058
PG23   3486.719017 -16026.188552  20855.152028    101.348256
PG24  14687.189892 -15981.267038  14818.599418      6.304919
PG25  11531.710095 -15796.835854 -18085.783575     23.796984
PG26 -19212.160543  -7266.665723 -17008.081358      0.437613
PG27 -21281.799126  -9715.090893  12752.681069    -15.667194
PG28   8742.080929  13535.062170  21664.493908    654.350382
PG29   1941.713513 -17923.156062 -19525.510557   -238.355802
PG30   1656.237770  23553.149877  11996.241273   -337.194462
PG31  -9535.410820 -15239.459810 -19458.117782    -82.038030
PG32 -15998.227108 -20867.049331   4402.055361      1.245714
PJ01 -30608.167229  14680.212290 -20406.800071   -336.152761
PJ02 -29209.483684  30078.622867   9022.473142     -0.074919
PJ03 -25399.511864  24021.289677  28664.143672     -3.202863
PJ07 -25366.991836  33682.941993    -26.350550      0.048415
PR01  -9647.098133   8315.506893 -22106.419012     70.731558
PR02  12741.523468  12923.233416 -17863.501468    454.801071
PR03  23822.756150   8680.609396  -2480.773977     25.737955
PR04  21234.366811   -311.855205  14141.401524     61.901511
PR05   6744.232839  -9121.049664  22846.268124     61.280663
PR07 -24000.406904  -8498.866521   1952.274164    -41.381303
PR08 -21290.090609    322.664426 -14017.892933    -55.754357
PR09   -246.596828 -14087.177811 -21260.429883      8.241660
PR11 -20081.246613  13630.018408  -7759.348294    -45.024840
PR12 -14281.457937  19130.257351   9049.755374    180.933937
PR13   -120.513176  14064.640031  21268.351773    -46.770349
PR14  14377.861712    485.937750  21082.743574     57.813003
PR15  20168.743744 -13000.616195   8671.918635    106.692640
PR16  13237.789562 -19422.024102  -9765.646758     -8.317281
PR17  11474.205120  13841.189826 -18104.561940    374.799879
PR18   9782.115901  -4075.672767 -23185.924169     56.524121
PR19   3747.002690 -19203.516720 -16354.370437   -120.103773
PR20  -5716.603877 -24772.026305   2305.292482   -426.803478
PR21 -11464.442932 -12795.068128  18844.828849   -166.828105
PR22  -9462.382872   5166.852504  23101.199472    -82.363281
PR23    345.014527  23442.869054  10056.037485    345.481966
PR24   6326.163372  24543.832997  -2958.218316     20.871237
PR25 -17411.163487   4939.144260 -17951.121504     -2.026696
EOF
